{"type": "FeatureCollection", "features": [ {"type": "Feature", "properties": {"norad_id": 33678, "name": "FENGYUN 1C DEB", "group": "fengyun-1c-debris", "lat": -64.71606112841037, "lon": 68.21102849782761, "alt_km": 639.7470611349654, "timestamp": "2025-12-09T05:43:21.013205+00:00", "meta": {"OBJECT_NAME": "FENGYUN 1C DEB", "OBJECT_ID": "1999-025DFP", "EPOCH": "2025-12-06T09:59:52.156896", "MEAN_MOTION": 14.47279188, "ECCENTRICITY": 0.02049845, "INCLINATION": 99.0439, "RA_OF_ASC_NODE": 45.4893, "ARG_OF_PERICENTER": 255.6599, "MEAN_ANOMALY": 102.1757, "EPHEMERIS_TYPE": 0, "CLASSIFICATION_TYPE": "U", "NORAD_CAT_ID": 33678, "ELEMENT_SET_NO": 999, "REV_AT_EPOCH": 95004, "BSTAR": 0.0013249114, "MEAN_MOTION_DOT": 6.253e-05, "MEAN_MOTION_DDOT": 0}, "tle": {"line1": "1 33678U 99025DFP 25340.41657589  .00006253  00000+0  13249-2 0  9997", "line2": "2 33678  99.0439  45.4893 0204984 255.6599 102.1757 14.47279188950046"}}, "geometry": {"type": "Point", "coordinates": [68.21102849782761, -64.71606112841037]}}, {"type": "Feature", "properties": {"norad_id": 33679, "name": "FENGYUN 1C DEB", "group": "fengyun-1c-debris", "lat": -19.474529105141425, "lon": -134.1854789193719, "alt_km": 601.1518436252554, "timestamp": "2025-12-09T05:43:21.013215+00:00", "meta": {"OBJECT_NAME": "FENGYUN 1C DEB", "OBJECT_ID": "1999-025DFQ", "EPOCH": "2025-12-07T16:03:33.724512", "MEAN_MOTION": 15.02269602, "ECCENTRICITY": 0.01493848, "INCLINATION": 99.3493, "RA_OF_ASC_NODE": 47.2643, "ARG_OF_PERICENTER": 316.0979, "MEAN_ANOMALY": 42.8447, "EPHEMERIS_TYPE": 0, "CLASSIFICATION_TYPE": "U", "NORAD_CAT_ID": 33679, "ELEMENT_SET_NO": 999, "REV_AT_EPOCH": 94047, "BSTAR": 0.0021044329, "MEAN_MOTION_DOT": 0.00035457, "MEAN_MOTION_DDOT": 0}, "tle": {"line1": "1 33679U 99025DFQ 25341.66914033  .00035457  00000+0  21044-2 0  9996", "line2": "2 33679  99.3493  47.2643 0149384 316.0979  42.8447 15.02269602940473"}}, "geometry": {"type": "Point", "coordinates": [-134.1854789193719, -19.474529105141425]}}, {"type": "Feature", "properties": {"norad_id": 33682, "name": "FENGYUN 1C DEB", "group": "fengyun-1c-debris", "lat": -60.96989846046958, "lon": -167.85126327558132, "alt_km": 827.9359826801237, "timestamp": "2025-12-09T05:43:21.013225+00:00", "meta": {"OBJECT_NAME": "FENGYUN 1C DEB", "OBJECT_ID": "1999-025DFT", "EPOCH": "2025-12-08T13:26:36.121056", "MEAN_MOTION": 14.26638362, "ECCENTRICITY": 0.0028817, "INCLINATION": 99.4202, "RA_OF_ASC_NODE": 28.8249, "ARG_OF_PERICENTER": 94.5113, "MEAN_ANOMALY": 265.9358, "EPHEMERIS_TYPE": 0, "CLASSIFICATION_TYPE": "U", "NORAD_CAT_ID": 33682, "ELEMENT_SET_NO": 999, "REV_AT_EPOCH": 91638, "BSTAR": 0.0022601, "MEAN_MOTION_DOT": 5.438e-05, "MEAN_MOTION_DDOT": 0}, "tle": {"line1": "1 33682U 99025DFT 25342.56014029  .00005438  00000+0  22601-2 0  9992", "line2": "2 33682  99.4202  28.8249 0028817  94.5113 265.9358 14.26638362916388"}}, "geometry": {"type": "Point", "coordinates": [-167.85126327558132, -60.96989846046958]}}, {"type": "Feature", "properties": {"norad_id": 33684, "name": "FENGYUN 1C DEB", "group": "fengyun-1c-debris", "lat": 3.669672397492959, "lon": 37.825023741425774, "alt_km": 455.8540947229776, "timestamp": "2025-12-09T05:43:21.013235+00:00", "meta": {"OBJECT_NAME": "FENGYUN 1C DEB", "OBJECT_ID": "1999-025DFV", "EPOCH": "2025-12-08T15:02:04.282080", "MEAN_MOTION": 14.72989919, "ECCENTRICITY": 0.0288147, "INCLINATION": 99.0655, "RA_OF_ASC_NODE": 37.7281, "ARG_OF_PERICENTER": 353.3618, "MEAN_ANOMALY": 6.3803, "EPHEMERIS_TYPE": 0, "CLASSIFICATION_TYPE": "U", "NORAD_CAT_ID": 33684, "ELEMENT_SET_NO": 999, "REV_AT_EPOCH": 92928, "BSTAR": 0.0010794, "MEAN_MOTION_DOT": 0.00013459, "MEAN_MOTION_DDOT": 0}, "tle": {"line1": "1 33684U 99025DFV 25342.62643845  .00013459  00000+0  10794-2 0  9997", "line2": "2 33684  99.0655  37.7281 0288147 353.3618   6.3803 14.72989919929286"}}, "geometry": {"type": "Point", "coordinates": [37.825023741425774, 3.669672397492959]}}, {"type": "Feature", "properties": {"norad_id": 33687, "name": "FENGYUN 1C DEB", "group": "fengyun-1c-debris", "lat": -60.11365145073627, "lon": 4.312769074749642, "alt_km": 465.0979032864143, "timestamp": "2025-12-09T05:43:21.013246+00:00", "meta": {"OBJECT_NAME": "FENGYUN 1C DEB", "OBJECT_ID": "1999-025DFY", "EPOCH": "2025-12-02T06:16:02.710272", "MEAN_MOTION": 15.17405521, "ECCENTRICITY": 0.0119547, "INCLINATION": 98.9972, "RA_OF_ASC_NODE": 340.0261, "ARG_OF_PERICENTER": 11.3354, "MEAN_ANOMALY": 349.0524, "EPHEMERIS_TYPE": 0, "CLASSIFICATION_TYPE": "U", "NORAD_CAT_ID": 33687, "ELEMENT_SET_NO": 999, "REV_AT_EPOCH": 71349, "BSTAR": 0.0018833, "MEAN_MOTION_DOT": 0.00045488, "MEAN_MOTION_DDOT": 0}, "tle": {"line1": "1 33687U 99025DFY 25336.26114248  .00045488  00000+0  18833-2 0  9992", "line2": "2 33687  98.9972 340.0261 0119547  11.3354 349.0524 15.17405521713495"}}, "geometry": {"type": "Point", "coordinates": [4.312769074749642, -60.11365145073627]}}, {"type": "Feature", "properties": {"norad_id": 33688, "name": "FENGYUN 1C DEB", "group": "fengyun-1c-debris", "lat": -70.90650981299973, "lon": 112.69691621925095, "alt_km": 710.8438137806861, "timestamp": "2025-12-09T05:43:21.013256+00:00", "meta": {"OBJECT_NAME": "FENGYUN 1C DEB", "OBJECT_ID": "1999-025DFZ", "EPOCH": "2025-12-07T05:52:51.431808", "MEAN_MOTION": 14.45429653, "ECCENTRICITY": 0.00533017, "INCLINATION": 99.3511, "RA_OF_ASC_NODE": 82.0765, "ARG_OF_PERICENTER": 278.5821, "MEAN_ANOMALY": 80.9331, "EPHEMERIS_TYPE": 0, "CLASSIFICATION_TYPE": "U", "NORAD_CAT_ID": 33688, "ELEMENT_SET_NO": 999, "REV_AT_EPOCH": 91402, "BSTAR": 0.0043358113, "MEAN_MOTION_DOT": 0.00015514, "MEAN_MOTION_DDOT": 0}, "tle": {"line1": "1 33688U 99025DFZ 25341.24503972  .00015514  00000+0  43358-2 0  9990", "line2": "2 33688  99.3511  82.0765 0053301 278.5821  80.9331 14.45429653914024"}}, "geometry": {"type": "Point", "coordinates": [112.69691621925095, -70.90650981299973]}}, {"type": "Feature", "properties": {"norad_id": 33689, "name": "FENGYUN 1C DEB", "group": "fengyun-1c-debris", "lat": -32.17069669479285, "lon": -3.791264249379116, "alt_km": 780.8142196607614, "timestamp": "2025-12-09T05:43:21.013266+00:00", "meta": {"OBJECT_NAME": "FENGYUN 1C DEB", "OBJECT_ID": "1999-025DGA", "EPOCH": "2025-12-07T05:58:19.079616", "MEAN_MOTION": 14.45083851, "ECCENTRICITY": 0.00480135, "INCLINATION": 99.5648, "RA_OF_ASC_NODE": 347.8823, "ARG_OF_PERICENTER": 167.5369, "MEAN_ANOMALY": 254.9476, "EPHEMERIS_TYPE": 0, "CLASSIFICATION_TYPE": "U", "NORAD_CAT_ID": 33689, "ELEMENT_SET_NO": 999, "REV_AT_EPOCH": 69451, "BSTAR": 0.0017194976, "MEAN_MOTION_DOT": 6.046e-05, "MEAN_MOTION_DDOT": 0}, "tle": {"line1": "1 33689U 99025DGA 25341.24883194  .00006046  00000+0  17195-2 0  9998", "line2": "2 33689  99.5648 347.8823 0048013 167.5369 254.9476 14.45083851694511"}}, "geometry": {"type": "Point", "coordinates": [-3.791264249379116, -32.17069669479285]}}, {"type": "Feature", "properties": {"norad_id": 33690, "name": "FENGYUN 1C DEB", "group": "fengyun-1c-debris", "lat": -65.21316658509517, "lon": -117.64336734294226, "alt_km": 750.1023255511845, "timestamp": "2025-12-09T05:43:21.013277+00:00", "meta": {"OBJECT_NAME": "FENGYUN 1C DEB", "OBJECT_ID": "1999-025DGB", "EPOCH": "2025-12-07T17:50:39.630336", "MEAN_MOTION": 14.51327091, "ECCENTRICITY": 0.00307596, "INCLINATION": 98.614, "RA_OF_ASC_NODE": 79.9887, "ARG_OF_PERICENTER": 65.404, "MEAN_ANOMALY": 295.0354, "EPHEMERIS_TYPE": 0, "CLASSIFICATION_TYPE": "U", "NORAD_CAT_ID": 33690, "ELEMENT_SET_NO": 999, "REV_AT_EPOCH": 93147, "BSTAR": 0.0036214388, "MEAN_MOTION_DOT": 0.00014492, "MEAN_MOTION_DDOT": 0}, "tle": {"line1": "1 33690U 99025DGB 25341.74351424  .00014492  00000+0  36214-2 0  9998", "line2": "2 33690  98.6140  79.9887 0030759  65.4040 295.0354 14.51327091931477"}}, "geometry": {"type": "Point", "coordinates": [-117.64336734294226, -65.21316658509517]}}, {"type": "Feature", "properties": {"norad_id": 33693, "name": "FENGYUN 1C DEB", "group": "fengyun-1c-debris", "lat": 38.63876101474379, "lon": 153.64185014518307, "alt_km": 848.3048904027974, "timestamp": "2025-12-09T05:43:21.013287+00:00", "meta": {"OBJECT_NAME": "FENGYUN 1C DEB", "OBJECT_ID": "1999-025DGE", "EPOCH": "2025-12-06T10:59:58.745184", "MEAN_MOTION": 13.71285471, "ECCENTRICITY": 0.02263549, "INCLINATION": 99.2151, "RA_OF_ASC_NODE": 158.4283, "ARG_OF_PERICENTER": 15.2874, "MEAN_ANOMALY": 345.4968, "EPHEMERIS_TYPE": 0, "CLASSIFICATION_TYPE": "U", "NORAD_CAT_ID": 33693, "ELEMENT_SET_NO": 999, "REV_AT_EPOCH": 88145, "BSTAR": 0.0025801574, "MEAN_MOTION_DOT": 2.735e-05, "MEAN_MOTION_DDOT": 0}, "tle": {"line1": "1 33693U 99025DGE 25340.45831881  .00002735  00000+0  25802-2 0  9996", "line2": "2 33693  99.2151 158.4283 0226354  15.2874 345.4968 13.71285471881457"}}, "geometry": {"type": "Point", "coordinates": [153.64185014518307, 38.63876101474379]}}, {"type": "Feature", "properties": {"norad_id": 33698, "name": "FENGYUN 1C DEB", "group": "fengyun-1c-debris", "lat": 61.57534293958799, "lon": -75.47971672333806, "alt_km": 794.972726490576, "timestamp": "2025-12-09T05:43:21.013297+00:00", "meta": {"OBJECT_NAME": "FENGYUN 1C DEB", "OBJECT_ID": "1999-025DGK", "EPOCH": "2025-12-07T20:26:00.379392", "MEAN_MOTION": 14.55696029, "ECCENTRICITY": 0.01372739, "INCLINATION": 99.6207, "RA_OF_ASC_NODE": 301.1868, "ARG_OF_PERICENTER": 232.4445, "MEAN_ANOMALY": 126.4213, "EPHEMERIS_TYPE": 0, "CLASSIFICATION_TYPE": "U", "NORAD_CAT_ID": 33698, "ELEMENT_SET_NO": 999, "REV_AT_EPOCH": 95565, "BSTAR": 0.00052439533, "MEAN_MOTION_DOT": 2.535e-05, "MEAN_MOTION_DDOT": 0}, "tle": {"line1": "1 33698U 99025DGK 25341.85139328  .00002535  00000+0  52440-3 0  9990", "line2": "2 33698  99.6207 301.1868 0137273 232.4445 126.4213 14.55696029955654"}}, "geometry": {"type": "Point", "coordinates": [-75.47971672333806, 61.57534293958799]}}]}